IRIDIUM 36              
1 24967U 97056C   24341.46221372  .00001159  00000+0  38256-3 0  9998
2 24967  86.3970 253.9097 0002028  79.5807 280.5619 14.37276730424535
IRIDIUM 39              
1 25042U 97069D   24341.59537621  .00001853  00000+0  48595-3 0  9996
2 25042  86.3896 293.7106 0016104 225.2395 134.7499 14.48691697421079
IRIDIUM 38              
1 25043U 97069E   24341.48280091  .00001349  00000+0  44185-3 0  9992
2 25043  86.3939 314.2540 0003290  53.1771 306.9728 14.37760228418267
IRIDIUM 42              
1 25077U 97077A   24341.67209512  .00001167  00000+0  39494-3 0  9993
2 25077  86.3946 320.1080 0002714  74.2700 285.8796 14.36022991413568
IRIDIUM 44              
1 25078U 97077B   24341.65832257  .00001309  00000+0  41058-3 0  9997
2 25078  86.3936 302.5419 0001330  32.8258 327.3024 14.39891706415995
IRIDIUM 45              
1 25104U 97082A   24341.52911592  .00021527  00000+0  97920-3 0  9992
2 25104  86.3627 140.7436 0137657 329.2321  30.0897 15.12418042422825
IRIDIUM 24              
1 25105U 97082B   24341.53022662  .00001162  00000+0  35035-3 0  9997
2 25105  86.3922 161.9626 0011506   4.9435 355.1876 14.41713530415457
IRIDIUM 51              
1 25262U 98018A   24341.50907528  .00035440  00000+0  12289-2 0  9992
2 25262  86.3910 150.0013 0116253 262.7083  96.0936 15.23344388417536
